{
  "norad_id": 68409,
  "name": "LPNTSAT-002 (IOD-2)",
  "history": [
    {
      "epoch": "2026-03-30T22:01:49.710144Z",
      "apogee_km": 519.9418896336574,
      "perigee_km": 502.70253363756547,
      "latitude_deg": -8.659718660526582e-06,
      "longitude_deg": 173.2912917102513,
      "height_km": 513.7907897531451,
      "semi_major_axis_km": 6889.459211635612,
      "eccentricity": 0.00125114,
      "inclination_deg": 97.4122,
      "raan_deg": 332.0512,
      "arg_perigee_deg": 274.1697,
      "mean_anomaly_deg": 85.8107,
      "mean_motion_rev_day": 15.18186279
    }
  ]
}